CTC2_L_00372016-03
1 10062U 26108RK  26075.70045139  .00000000  00000+0  00000-0 0  9994
2 10062  75.0000 180.0000 0000000   0.0000   0.0000 13.16009679    15
CTC2_L_00372016-04
1 10063U 22514IZ  26075.70045139  .00000000  00000+0  00000-0 0  9992
2 10063  75.0000 180.0000 0000000   0.0000  90.0000 13.16009679    15
CTC2_L_00372017-01
1 10064U 24725VV  26075.70045139  .00000000  00000+0  00000-0 0  9999
2 10064  75.0000 192.0000 0000000   0.0000 192.0000 13.16009679    12
CTC2_L_00372017-02
1 10065U 23949ND  26075.70045139  .00000000  00000+0  00000-0 0  9997
2 10065  75.0000 192.0000 0000000   0.0000 282.0000 13.16009679    13
CTC2_L_00372017-03
1 10066U 26930VR  26075.70045139  .00000000  00000+0  00000-0 0  9991
2 10066  75.0000 192.0000 0000000   0.0000  12.0000 13.16009679    15
CTC2_L_00372017-04
1 10067U 22239UW  26075.70045139  .00000000  00000+0  00000-0 0  9990
2 10067  75.0000 192.0000 0000000   0.0000 102.0000 13.16009679    16
CTC2_L_00372018-01
1 10068U 26904DT  26075.70045139  .00000000  00000+0  00000-0 0  9994
2 10068  75.0000 204.0000 0000000   0.0000 204.0000 13.16009679    14
CTC2_L_00372018-02
1 10069U 26829RU  26075.70045139  .00000000  00000+0  00000-0 0  9991
2 10069  75.0000 204.0000 0000000   0.0000 294.0000 13.16009679    14
CTC2_L_00372018-03
1 10070U 22327RL  26075.70045139  .00000000  00000+0  00000-0 0  9992
2 10070  75.0000 204.0000 0000000   0.0000  24.0000 13.16009679    17
CTC2_L_00372018-04
1 10071U 25678YE  26075.70045139  .00000000  00000+0  00000-0 0  9995
2 10071  75.0000 204.0000 0000000   0.0000 114.0000 13.16009679    18
CTC2_L_00372019-01
1 10072U 23581NM  26075.70045139  .00000000  00000+0  00000-0 0  9997
2 10072  75.0000 216.0000 0000000   0.0000 216.0000 13.16009679    15
CTC2_L_00372019-02
1 10073U 22304DY  26075.70045139  .00000000  00000+0  00000-0 0  9990
2 10073  75.0000 216.0000 0000000   0.0000 306.0000 13.16009679    16
CTC2_L_00372019-03
1 10074U 25797RY  26075.70045139  .00000000  00000+0  00000-0 0  9990
2 10074  75.0000 216.0000 0000000   0.0000  36.0000 13.16009679    17
CTC2_L_00372019-04
1 10075U 22400SH  26075.70045139  .00000000  00000+0  00000-0 0  9999
2 10075  75.0000 216.0000 0000000   0.0000 126.0000 13.16009679    18
CTC2_L_00372020-01
1 10076U 24790QX  26075.70045139  .00000000  00000+0  00000-0 0  9994
2 10076  75.0000 228.0000 0000000   0.0000 228.0000 13.16009679    15
CTC2_L_00372020-02
1 10077U 23435LU  26075.70045139  .00000000  00000+0  00000-0 0  9990
2 10077  75.0000 228.0000 0000000   0.0000 318.0000 13.16009679    16
CTC2_L_00372020-03
1 10078U 25407UT  26075.70045139  .00000000  00000+0  00000-0 0  9992
2 10078  75.0000 228.0000 0000000   0.0000  48.0000 13.16009679    17
CTC2_L_00372020-04
1 10079U 23334ZY  26075.70045139  .00000000  00000+0  00000-0 0  9990
2 10079  75.0000 228.0000 0000000   0.0000 138.0000 13.16009679    18
CTC2_L_00372021-01
1 10080U 22563DF  26075.70045139  .00000000  00000+0  00000-0 0  9995
2 10080  75.0000 240.0000 0000000   0.0000 240.0000 13.16009679    18
CTC2_L_00372021-02
1 10081U 22451IM  26075.70045139  .00000000  00000+0  00000-0 0  9992
2 10081  75.0000 240.0000 0000000   0.0000 330.0000 13.16009679    19
CTC2_L_00372021-03
1 10082U 26818FI  26075.70045139  .00000000  00000+0  00000-0 0  9994
2 10082  75.0000 240.0000 0000000   0.0000  60.0000 13.16009679    10
CTC2_L_00372021-04
1 10083U 26536NJ  26075.70045139  .00000000  00000+0  00000-0 0  9992
2 10083  75.0000 240.0000 0000000   0.0000 150.0000 13.16009679    11
CTC2_L_00372022-01
1 10084U 22052JA  26075.70045139  .00000000  00000+0  00000-0 0  9992
2 10084  75.0000 252.0000 0000000   0.0000 252.0000 13.16009679    18
CTC2_L_00372022-02
1 10085U 25493QQ  26075.70045139  .00000000  00000+0  00000-0 0  9995
2 10085  75.0000 252.0000 0000000   0.0000 342.0000 13.16009679    19
CTC2_L_00372022-03
1 10086U 26390VG  26075.70045139  .00000000  00000+0  00000-0 0  9993
2 10086  75.0000 252.0000 0000000   0.0000  72.0000 13.16009679    10
CTC2_L_00372022-04
1 10087U 23627VG  26075.70045139  .00000000  00000+0  00000-0 0  9994
2 10087  75.0000 252.0000 0000000   0.0000 162.0000 13.16009679    11
CTC2_L_00372023-01
1 10088U 25056HN  26075.70045139  .00000000  00000+0  00000-0 0  9993
2 10088  75.0000 264.0000 0000000   0.0000 264.0000 13.16009679    18
CTC2_L_00372023-02
1 10089U 25194XL  26075.70045139  .00000000  00000+0  00000-0 0  9997
2 10089  75.0000 264.0000 0000000   0.0000 354.0000 13.16009679    19
CTC2_L_00372023-03
1 10090U 22987FL  26075.70045139  .00000000  00000+0  00000-0 0  9996
2 10090  75.0000 264.0000 0000000   0.0000  84.0000 13.16009679    11
CTC2_L_00372023-04
1 10091U 25635HL  26075.70045139  .00000000  00000+0  00000-0 0  9990
2 10091  75.0000 264.0000 0000000   0.0000 174.0000 13.16009679    12
CTC2_L_00372024-01
1 10092U 25196MM  26075.70045139  .00000000  00000+0  00000-0 0  9993
2 10092  75.0000 276.0000 0000000   0.0000 276.0000 13.16009679    19
CTC2_L_00372024-02
1 10093U 26840FY  26075.70045139  .00000000  00000+0  00000-0 0  9991
2 10093  75.0000 276.0000 0000000   0.0000   6.0000 13.16009679    11
CTC2_L_00372024-03
1 10094U 23500R   26075.70045139  .00000000  00000+0  00000-0 0  9992
2 10094  75.0000 276.0000 0000000   0.0000  96.0000 13.16009679    11
CTC2_L_00372024-04
1 10095U 22093MV  26075.70045139  .00000000  00000+0  00000-0 0  9999
2 10095  75.0000 276.0000 0000000   0.0000 186.0000 13.16009679    12
CTC2_L_00372025-01
1 10096U 26171LK  26075.70045139  .00000000  00000+0  00000-0 0  9991
2 10096  75.0000 288.0000 0000000   0.0000 288.0000 13.16009679    19
CTC2_L_00372025-02
1 10097U 25926GH  26075.70045139  .00000000  00000+0  00000-0 0  9999
2 10097  75.0000 288.0000 0000000   0.0000  18.0000 13.16009679    11
CTC2_L_00372025-03
1 10098U 26821AD  26075.70045139  .00000000  00000+0  00000-0 0  9995
2 10098  75.0000 288.0000 0000000   0.0000 108.0000 13.16009679    12
CTC2_L_00372025-04
1 10099U 25111PJ  26075.70045139  .00000000  00000+0  00000-0 0  9997
2 10099  75.0000 288.0000 0000000   0.0000 198.0000 13.16009679    12
CTC2_L_00372026-01
1 10100U 26047RH  26075.70045139  .00000000  00000+0  00000-0 0  9999
2 10100  75.0000 300.0000 0000000   0.0000 300.0000 13.16009679    15
CTC2_L_00372026-02
1 10101U 23195IK  26075.70045139  .00000000  00000+0  00000-0 0  9991
2 10101  75.0000 300.0000 0000000   0.0000  30.0000 13.16009679    16
CTC2_L_00372026-03
1 10102U 23846S   26075.70045139  .00000000  00000+0  00000-0 0  9995
2 10102  75.0000 300.0000 0000000   0.0000 120.0000 13.16009679    17
CTC2_L_00372026-04
1 10103U 24640CO  26075.70045139  .00000000  00000+0  00000-0 0  9999
2 10103  75.0000 300.0000 0000000   0.0000 210.0000 13.16009679    18
CTC2_L_00372027-01
1 10104U 23423CN  26075.70045139  .00000000  00000+0  00000-0 0  9998
2 10104  75.0000 312.0000 0000000   0.0000 312.0000 13.16009679    15
CTC2_L_00372027-02
1 10105U 22881ZM  26075.70045139  .00000000  00000+0  00000-0 0  9996
2 10105  75.0000 312.0000 0000000   0.0000  42.0000 13.16009679    16
CTC2_L_00372027-03
1 10106U 24126EJ  26075.70045139  .00000000  00000+0  00000-0 0  9991
2 10106  75.0000 312.0000 0000000   0.0000 132.0000 13.16009679    17
CTC2_L_00372027-04
1 10107U 26869PW  26075.70045139  .00000000  00000+0  00000-0 0  9998
2 10107  75.0000 312.0000 0000000   0.0000 222.0000 13.16009679    18
CTC2_L_00372028-01
1 10108U 25273ZX  26075.70045139  .00000000  00000+0  00000-0 0  9997
2 10108  75.0000 324.0000 0000000   0.0000 324.0000 13.16009679    15
CTC2_L_00372028-02
1 10109U 26753Z   26075.70045139  .00000000  00000+0  00000-0 0  9992
2 10109  75.0000 324.0000 0000000   0.0000  54.0000 13.16009679    16
CTC2_L_00372028-03
1 10110U 26879BB  26075.70045139  .00000000  00000+0  00000-0 0  9993
2 10110  75.0000 324.0000 0000000   0.0000 144.0000 13.16009679    18
CTC2_L_00372028-04
1 10111U 26778TF  26075.70045139  .00000000  00000+0  00000-0 0  9992
2 10111  75.0000 324.0000 0000000   0.0000 234.0000 13.16009679    19
CTC2_L_00372029-01
1 10112U 25148FQ  26075.70045139  .00000000  00000+0  00000-0 0  9993
2 10112  75.0000 336.0000 0000000   0.0000 336.0000 13.16009679    16
CTC2_L_00372029-02
1 10113U 23219TH  26075.70045139  .00000000  00000+0  00000-0 0  9991
2 10113  75.0000 336.0000 0000000   0.0000  66.0000 13.16009679    17
CTC2_L_00372029-03
1 10114U 24006BQ  26075.70045139  .00000000  00000+0  00000-0 0  9997
2 10114  75.0000 336.0000 0000000   0.0000 156.0000 13.16009679    18
CTC2_L_00372029-04
1 10115U 24280EK  26075.70045139  .00000000  00000+0  00000-0 0  9992
2 10115  75.0000 336.0000 0000000   0.0000 246.0000 13.16009679    19
CTC2_L_00372030-01
1 10116U 26664KV  26075.70045139  .00000000  00000+0  00000-0 0  9991
2 10116  75.0000 348.0000 0000000   0.0000 348.0000 13.16009679    16
CTC2_L_00372030-02
1 10117U 23762JH  26075.70045139  .00000000  00000+0  00000-0 0  9998
2 10117  75.0000 348.0000 0000000   0.0000  78.0000 13.16009679    17
CTC2_L_00372030-03
1 10118U 25501ZU  26075.70045139  .00000000  00000+0  00000-0 0  9992
2 10118  75.0000 348.0000 0000000   0.0000 168.0000 13.16009679    18
CTC2_L_00372030-04
1 10119U 24990NH  26075.70045139  .00000000  00000+0  00000-0 0  9994
2 10119  75.0000 348.0000 0000000   0.0000 258.0000 13.16009679    19
